{"type": "FeatureCollection", "features": [{"type": "Feature", "properties": {"norad_id": 24946, "name": "IRIDIUM 33", "group": "iridium-33-debris", "lat": -32.99256149035159, "lon": 70.10161925821672, "alt_km": 780.984369093735, "timestamp": "2025-12-02T15:49:07.578146+00:00", "meta": {"OBJECT_NAME": "IRIDIUM 33", "OBJECT_ID": "1997-051C", "EPOCH": "2025-12-02T07:36:18.270432", "MEAN_MOTION": 14.35024881, "ECCENTRICITY": 0.00060402, "INCLINATION": 86.3871, "RA_OF_ASC_NODE": 72.5961, "ARG_OF_PERICENTER": 240.9583, "MEAN_ANOMALY": 119.1008, "EPHEMERIS_TYPE": 0, "CLASSIFICATION_TYPE": "U", "NORAD_CAT_ID": 24946, "ELEMENT_SET_NO": 999, "REV_AT_EPOCH": 47685, "BSTAR": 0.00017374371, "MEAN_MOTION_DOT": 5.14e-06, "MEAN_MOTION_DDOT": 0}, "tle": {"line1": "1 24946U 97051C   25336.31687813  .00000514  00000+0  17374-3 0  9997", "line2": "2 24946  86.3871  72.5961 0006040 240.9583 119.1008 14.35024881476857"}}, "geometry": {"type": "Point", "coordinates": [70.10161925821672, -32.99256149035159]}}, {"type": "Feature", "properties": {"norad_id": 33773, "name": "IRIDIUM 33 DEB", "group": "iridium-33-debris", "lat": -13.523641827712314, "lon": 63.993119460117555, "alt_km": 760.485365628505, "timestamp": "2025-12-02T15:49:07.578191+00:00", "meta": {"OBJECT_NAME": "IRIDIUM 33 DEB", "OBJECT_ID": "1997-051L", "EPOCH": "2025-12-02T07:33:41.360256", "MEAN_MOTION": 14.43218215, "ECCENTRICITY": 0.0011374, "INCLINATION": 86.4014, "RA_OF_ASC_NODE": 65.0061, "ARG_OF_PERICENTER": 178.6597, "MEAN_ANOMALY": 181.4636, "EPHEMERIS_TYPE": 0, "CLASSIFICATION_TYPE": "U", "NORAD_CAT_ID": 33773, "ELEMENT_SET_NO": 999, "REV_AT_EPOCH": 88197, "BSTAR": 0.00046683922, "MEAN_MOTION_DOT": 1.59e-05, "MEAN_MOTION_DDOT": 0}, "tle": {"line1": "1 33773U 97051L   25336.31506204  .00001590  00000+0  46684-3 0  9990", "line2": "2 33773  86.4014  65.0061 0011374 178.6597 181.4636 14.43218215881978"}}, "geometry": {"type": "Point", "coordinates": [63.993119460117555, -13.523641827712314]}}, {"type": "Feature", "properties": {"norad_id": 33775, "name": "IRIDIUM 33 DEB", "group": "iridium-33-debris", "lat": 45.08229133628667, "lon": -129.79940188782177, "alt_km": 744.2458295905171, "timestamp": "2025-12-02T15:49:07.578207+00:00", "meta": {"OBJECT_NAME": "IRIDIUM 33 DEB", "OBJECT_ID": "1997-051N", "EPOCH": "2025-12-02T07:09:45.131328", "MEAN_MOTION": 14.41430356, "ECCENTRICITY": 0.00130888, "INCLINATION": 86.3644, "RA_OF_ASC_NODE": 54.0103, "ARG_OF_PERICENTER": 187.9979, "MEAN_ANOMALY": 236.4292, "EPHEMERIS_TYPE": 0, "CLASSIFICATION_TYPE": "U", "NORAD_CAT_ID": 33775, "ELEMENT_SET_NO": 999, "REV_AT_EPOCH": 87990, "BSTAR": 0.00047061623, "MEAN_MOTION_DOT": 1.546e-05, "MEAN_MOTION_DDOT": 0}, "tle": {"line1": "1 33775U 97051N   25336.29843902  .00001546  00000+0  47062-3 0  9990", "line2": "2 33775  86.3644  54.0103 0013088 187.9979 236.4292 14.41430356879903"}}, "geometry": {"type": "Point", "coordinates": [-129.79940188782177, 45.08229133628667]}}, {"type": "Feature", "properties": {"norad_id": 33776, "name": "IRIDIUM 33 DEB", "group": "iridium-33-debris", "lat": 58.26686905163833, "lon": -100.82831779571482, "alt_km": 761.190624477531, "timestamp": "2025-12-02T15:49:07.578237+00:00", "meta": {"OBJECT_NAME": "IRIDIUM 33 DEB", "OBJECT_ID": "1997-051P", "EPOCH": "2025-12-02T07:10:01.361568", "MEAN_MOTION": 14.38201766, "ECCENTRICITY": 0.00132633, "INCLINATION": 86.4036, "RA_OF_ASC_NODE": 85.1601, "ARG_OF_PERICENTER": 226.6758, "MEAN_ANOMALY": 189.7083, "EPHEMERIS_TYPE": 0, "CLASSIFICATION_TYPE": "U", "NORAD_CAT_ID": 33776, "ELEMENT_SET_NO": 999, "REV_AT_EPOCH": 87932, "BSTAR": 0.00043052893, "MEAN_MOTION_DOT": 1.327e-05, "MEAN_MOTION_DDOT": 0}, "tle": {"line1": "1 33776U 97051P   25336.29862687  .00001327  00000+0  43053-3 0  9995", "line2": "2 33776  86.4036  85.1601 0013263 226.6758 189.7083 14.38201766879320"}}, "geometry": {"type": "Point", "coordinates": [-100.82831779571482, 58.26686905163833]}}, {"type": "Feature", "properties": {"norad_id": 33777, "name": "IRIDIUM 33 DEB", "group": "iridium-33-debris", "lat": 1.1263486624208285, "lon": 39.65897209495842, "alt_km": 709.1256727991904, "timestamp": "2025-12-02T15:49:07.578252+00:00", "meta": {"OBJECT_NAME": "IRIDIUM 33 DEB", "OBJECT_ID": "1997-051Q", "EPOCH": "2025-12-02T05:54:48.970368", "MEAN_MOTION": 14.55480765, "ECCENTRICITY": 0.00051945, "INCLINATION": 86.3802, "RA_OF_ASC_NODE": 39.767, "ARG_OF_PERICENTER": 298.3236, "MEAN_ANOMALY": 61.7448, "EPHEMERIS_TYPE": 0, "CLASSIFICATION_TYPE": "U", "NORAD_CAT_ID": 33777, "ELEMENT_SET_NO": 999, "REV_AT_EPOCH": 88381, "BSTAR": 0.00119914, "MEAN_MOTION_DOT": 5.237e-05, "MEAN_MOTION_DDOT": 0}, "tle": {"line1": "1 33777U 97051Q   25336.24640012  .00005237  00000+0  11991-2 0  9996", "line2": "2 33777  86.3802  39.7670 0005194 298.3236  61.7448 14.55480765883813"}}, "geometry": {"type": "Point", "coordinates": [39.65897209495842, 1.1263486624208285]}}, {"type": "Feature", "properties": {"norad_id": 33850, "name": "IRIDIUM 33 DEB", "group": "iridium-33-debris", "lat": 86.19918057088124, "lon": 140.18785917229198, "alt_km": 745.6732420518092, "timestamp": "2025-12-02T15:49:07.578264+00:00", "meta": {"OBJECT_NAME": "IRIDIUM 33 DEB", "OBJECT_ID": "1997-051T", "EPOCH": "2025-12-02T05:42:51.515136", "MEAN_MOTION": 14.42108543, "ECCENTRICITY": 0.0011099, "INCLINATION": 86.3425, "RA_OF_ASC_NODE": 34.6946, "ARG_OF_PERICENTER": 194.2291, "MEAN_ANOMALY": 232.5495, "EPHEMERIS_TYPE": 0, "CLASSIFICATION_TYPE": "U", "NORAD_CAT_ID": 33850, "ELEMENT_SET_NO": 999, "REV_AT_EPOCH": 88001, "BSTAR": 0.00058229953, "MEAN_MOTION_DOT": 1.934e-05, "MEAN_MOTION_DDOT": 0}, "tle": {"line1": "1 33850U 97051T   25336.23809624  .00001934  00000+0  58230-3 0  9991", "line2": "2 33850  86.3425  34.6946 0011099 194.2291 232.5495 14.42108543880018"}}, "geometry": {"type": "Point", "coordinates": [140.18785917229198, 86.19918057088124]}}, {"type": "Feature", "properties": {"norad_id": 33853, "name": "IRIDIUM 33 DEB", "group": "iridium-33-debris", "lat": -55.22723470145079, "lon": -179.98417841764336, "alt_km": 775.5376554732902, "timestamp": "2025-12-02T15:49:07.578276+00:00", "meta": {"OBJECT_NAME": "IRIDIUM 33 DEB", "OBJECT_ID": "1997-051W", "EPOCH": "2025-12-02T01:14:36.906720", "MEAN_MOTION": 13.98945927, "ECCENTRICITY": 0.02068552, "INCLINATION": 86.0005, "RA_OF_ASC_NODE": 354.4987, "ARG_OF_PERICENTER": 268.8529, "MEAN_ANOMALY": 151.103, "EPHEMERIS_TYPE": 0, "CLASSIFICATION_TYPE": "U", "NORAD_CAT_ID": 33853, "ELEMENT_SET_NO": 999, "REV_AT_EPOCH": 85196, "BSTAR": 0.0024792039, "MEAN_MOTION_DOT": 4.313e-05, "MEAN_MOTION_DDOT": 0}, "tle": {"line1": "1 33853U 97051W   25336.05181605  .00004313  00000+0  24792-2 0  9995", "line2": "2 33853  86.0005 354.4987 0206855 268.8529 151.1030 13.98945927851966"}}, "geometry": {"type": "Point", "coordinates": [-179.98417841764336, -55.22723470145079]}}, {"type": "Feature", "properties": {"norad_id": 33860, "name": "IRIDIUM 33 DEB", "group": "iridium-33-debris", "lat": -14.375938419432595, "lon": -147.37249689863316, "alt_km": 680.866065940214, "timestamp": "2025-12-02T15:49:07.578289+00:00", "meta": {"OBJECT_NAME": "IRIDIUM 33 DEB", "OBJECT_ID": "1997-051AD", "EPOCH": "2025-12-02T05:26:21.340032", "MEAN_MOTION": 14.67138224, "ECCENTRICITY": 0.00087317, "INCLINATION": 86.3852, "RA_OF_ASC_NODE": 31.8903, "ARG_OF_PERICENTER": 32.0851, "MEAN_ANOMALY": 39.427, "EPHEMERIS_TYPE": 0, "CLASSIFICATION_TYPE": "U", "NORAD_CAT_ID": 33860, "ELEMENT_SET_NO": 999, "REV_AT_EPOCH": 88568, "BSTAR": 0.0015121125, "MEAN_MOTION_DOT": 8.527e-05, "MEAN_MOTION_DDOT": 0}, "tle": {"line1": "1 33860U 97051AD  25336.22663588  .00008527  00000+0  15121-2 0  9994", "line2": "2 33860  86.3852  31.8903 0008731  32.0851  39.4270 14.67138224885684"}}, "geometry": {"type": "Point", "coordinates": [-147.37249689863316, -14.375938419432595]}}, {"type": "Feature", "properties": {"norad_id": 33862, "name": "IRIDIUM 33 DEB", "group": "iridium-33-debris", "lat": 25.235460641467416, "lon": -139.7212900948948, "alt_km": 639.3391596255078, "timestamp": "2025-12-02T15:49:07.578300+00:00", "meta": {"OBJECT_NAME": "IRIDIUM 33 DEB", "OBJECT_ID": "1997-051AF", "EPOCH": "2025-12-02T03:56:54.079584", "MEAN_MOTION": 14.6918775, "ECCENTRICITY": 0.00540433, "INCLINATION": 86.4106, "RA_OF_ASC_NODE": 42.1919, "ARG_OF_PERICENTER": 104.4608, "MEAN_ANOMALY": 315.3783, "EPHEMERIS_TYPE": 0, "CLASSIFICATION_TYPE": "U", "NORAD_CAT_ID": 33862, "ELEMENT_SET_NO": 999, "REV_AT_EPOCH": 88668, "BSTAR": 0.0016055683, "MEAN_MOTION_DOT": 9.692e-05, "MEAN_MOTION_DDOT": 0}, "tle": {"line1": "1 33862U 97051AF  25336.16451481  .00009692  00000+0  16056-2 0  9998", "line2": "2 33862  86.4106  42.1919 0054043 104.4608 315.3783 14.69187750886688"}}, "geometry": {"type": "Point", "coordinates": [-139.7212900948948, 25.235460641467416]}}, {"type": "Feature", "properties": {"norad_id": 33866, "name": "IRIDIUM 33 DEB", "group": "iridium-33-debris", "lat": 17.097367025772336, "lon": 98.44074590180459, "alt_km": 889.7789004343549, "timestamp": "2025-12-02T15:49:07.578312+00:00", "meta": {"OBJECT_NAME": "IRIDIUM 33 DEB", "OBJECT_ID": "1997-051AK", "EPOCH": "2025-12-02T07:36:26.418816", "MEAN_MOTION": 14.25213799, "ECCENTRICITY": 0.01135469, "INCLINATION": 86.2996, "RA_OF_ASC_NODE": 97.4449, "ARG_OF_PERICENTER": 194.6577, "MEAN_ANOMALY": 228.3118, "EPHEMERIS_TYPE": 0, "CLASSIFICATION_TYPE": "U", "NORAD_CAT_ID": 33866, "ELEMENT_SET_NO": 999, "REV_AT_EPOCH": 86662, "BSTAR": 0.00084489289, "MEAN_MOTION_DOT": 2.142e-05, "MEAN_MOTION_DDOT": 0}, "tle": {"line1": "1 33866U 97051AK  25336.31697244  .00002142  00000+0  84489-3 0  9997", "line2": "2 33866  86.2996  97.4449 0113546 194.6577 228.3118 14.25213799866620"}}, "geometry": {"type": "Point", "coordinates": [98.44074590180459, 17.097367025772336]}}]}